{
  "norad_id": 56784,
  "name": "STARLINK-6354",
  "history": [
    {
      "epoch": "2026-03-28T20:50:08.694816Z",
      "apogee_km": 573.7272076816898,
      "perigee_km": 570.2966141792549,
      "latitude_deg": 4.152167191422824e-05,
      "longitude_deg": 137.3858569306706,
      "height_km": 574.5235926694053,
      "semi_major_axis_km": 6950.148910930472,
      "eccentricity": 0.0002468,
      "inclination_deg": 69.9976,
      "raan_deg": 276.2045,
      "arg_perigee_deg": 267.1622,
      "mean_anomaly_deg": 92.9255,
      "mean_motion_rev_day": 14.98344222
    },
    {
      "epoch": "2026-03-28T22:26:16.569600Z",
      "apogee_km": 573.7675493200486,
      "perigee_km": 570.2424373010426,
      "latitude_deg": 6.081672369445417e-06,
      "longitude_deg": 113.118932974221,
      "height_km": 574.5358827373149,
      "semi_major_axis_km": 6950.141993310545,
      "eccentricity": 0.0002536,
      "inclination_deg": 69.9978,
      "raan_deg": 276.0362,
      "arg_perigee_deg": 266.6161,
      "mean_anomaly_deg": 93.4708,
      "mean_motion_rev_day": 14.98346459
    },
    {
      "epoch": "2026-03-30T04:52:50.918304Z",
      "apogee_km": 574.0222505950542,
      "perigee_km": 570.129714312101,
      "latitude_deg": -3.176898499294072e-05,
      "longitude_deg": 12.026755953062708,
      "height_km": 574.5741830107731,
      "semi_major_axis_km": 6950.212982453577,
      "eccentricity": 0.00028003,
      "inclination_deg": 69.9977,
      "raan_deg": 272.8374,
      "arg_perigee_deg": 267.9063,
      "mean_anomaly_deg": 92.1775,
      "mean_motion_rev_day": 14.98323503
    },
    {
      "epoch": "2026-03-30T12:53:31.232256Z",
      "apogee_km": 574.006589486432,
      "perigee_km": 570.13657434385,
      "latitude_deg": 6.518003920473178e-05,
      "longitude_deg": -109.31209158712726,
      "height_km": 574.5863587398014,
      "semi_major_axis_km": 6950.208581915141,
      "eccentricity": 0.00027841,
      "inclination_deg": 69.9977,
      "raan_deg": 271.9955,
      "arg_perigee_deg": 267.4022,
      "mean_anomaly_deg": 92.6819,
      "mean_motion_rev_day": 14.98324926
    },
    {
      "epoch": "2026-03-30T20:54:11.502144Z",
      "apogee_km": 574.0017363033558,
      "perigee_km": 570.1320017931466,
      "latitude_deg": 4.077126239783797e-05,
      "longitude_deg": 129.34950104054815,
      "height_km": 574.6082020346653,
      "semi_major_axis_km": 6950.20386904825,
      "eccentricity": 0.00027839,
      "inclination_deg": 69.9976,
      "raan_deg": 271.1539,
      "arg_perigee_deg": 266.6145,
      "mean_anomaly_deg": 93.4696,
      "mean_motion_rev_day": 14.9832645
    },
    {
      "epoch": "2026-03-31T20:56:12.001632Z",
      "apogee_km": 574.0581321960826,
      "perigee_km": 570.0034043200803,
      "latitude_deg": 1.7316996203777238e-05,
      "longitude_deg": 125.33529309709024,
      "height_km": 574.498770846207,
      "semi_major_axis_km": 6950.167768258081,
      "eccentricity": 0.0002917,
      "inclination_deg": 69.9977,
      "raan_deg": 268.6288,
      "arg_perigee_deg": 268.8474,
      "mean_anomaly_deg": 91.2351,
      "mean_motion_rev_day": 14.98338124
    },
    {
      "epoch": "2026-04-01T20:58:13.499040Z",
      "apogee_km": 574.1150607853042,
      "perigee_km": 570.0283380700412,
      "latitude_deg": -2.2589346667818783e-05,
      "longitude_deg": 121.3168096961329,
      "height_km": 574.5553509781354,
      "semi_major_axis_km": 6950.208699427672,
      "eccentricity": 0.000294,
      "inclination_deg": 69.9977,
      "raan_deg": 266.1036,
      "arg_perigee_deg": 268.4179,
      "mean_anomaly_deg": 91.6643,
      "mean_motion_rev_day": 14.98324888
    },
    {
      "epoch": "2026-04-02T21:00:14.062464Z",
      "apogee_km": 574.0838329347735,
      "perigee_km": 570.0049104913423,
      "latitude_deg": 1.07098575126662e-05,
      "longitude_deg": 117.30255456248166,
      "height_km": 574.5275285812194,
      "semi_major_axis_km": 6950.181371713057,
      "eccentricity": 0.00029344,
      "inclination_deg": 69.9982,
      "raan_deg": 263.5787,
      "arg_perigee_deg": 268.4298,
      "mean_anomaly_deg": 91.6525,
      "mean_motion_rev_day": 14.98333725
    },
    {
      "epoch": "2026-04-03T21:02:15.187488Z",
      "apogee_km": 574.1269757593918,
      "perigee_km": 569.9693749874823,
      "latitude_deg": -2.5488519260935503e-05,
      "longitude_deg": 113.28582711722613,
      "height_km": 574.4865512499495,
      "semi_major_axis_km": 6950.185175373436,
      "eccentricity": 0.0002991,
      "inclination_deg": 69.9984,
      "raan_deg": 261.0537,
      "arg_perigee_deg": 269.6958,
      "mean_anomaly_deg": 90.3858,
      "mean_motion_rev_day": 14.98332495
    },
    {
      "epoch": "2026-04-04T19:28:07.929696Z",
      "apogee_km": 574.1191597443594,
      "perigee_km": 569.9671221281633,
      "latitude_deg": 2.610330354689067e-05,
      "longitude_deg": 133.53816434718215,
      "height_km": 574.4670499482545,
      "semi_major_axis_km": 6950.180140936261,
      "eccentricity": 0.0002987,
      "inclination_deg": 69.9988,
      "raan_deg": 258.697,
      "arg_perigee_deg": 270.0952,
      "mean_anomaly_deg": 89.9865,
      "mean_motion_rev_day": 14.98334123
    }
  ]
}